DUPLEX                  
1 66906U 98067XS  26016.05903276  .00019299  00000+0  31582-3 0  9995
2 66906  51.6323 331.9628 0002257  18.8611 341.2462 15.52518513  6949
1998-067XT              
1 66907U 98067XT  26016.58275113  .00066206  00000+0  91387-3 0  9995
2 66907  51.6307 328.7111 0003634  69.7013 290.4369 15.56548970  7030
1998-067XU              
1 66908U 98067XU  26016.58189305  .00056622  00000+0  78536-3 0  9995
2 66908  51.6314 328.7027 0003507  64.7456 295.3898 15.56485324  7034
SILVERSAT               
1 66909U 98067XV  26016.25167523  .00067226  00000+0  90516-3 0  9992
2 66909  51.6315 330.2483 0003812  73.9906 286.1506 15.57210721  6986
1998-067XW              
1 66910U 98067XW  26016.25354074  .00058338  00000+0  79940-3 0  9995
2 66910  51.6297 330.2591 0002566  48.4217 311.6994 15.56802316  6985
1998-067XX              
1 66911U 98067XX  26016.55796091  .00085148  00000+0  11064-2 0  9999
2 66911  51.6292 328.5436 0002601  72.8176 287.3101 15.58063585  7028
1998-067XY              
1 66912U 98067XY  26016.28178246  .00045958  00000+0  67474-3 0  9998
2 66912  51.6311 330.4500 0003384  49.8415 310.2872 15.55032427  6976
